let obj = {
    "OBJECT_NAME": "2024-173A",
    "OBJECT_ID": "2024-173A",
    "EPOCH": "2024-10-24T12:35:47.739840",
    "MEAN_MOTION": 15.26424552,
    "ECCENTRICITY": 0.0011954,
    "INCLINATION": 97.4043,
    "RA_OF_ASC_NODE": 11.023,
    "ARG_OF_PERICENTER": 163.1983,
    "MEAN_ANOMALY": 196.9654,
    "EPHEMERIS_TYPE": 0,
    "CLASSIFICATION_TYPE": "U",
    "NORAD_CAT_ID": 61227,
    "ELEMENT_SET_NO": 999,
    "REV_AT_EPOCH": 462,
    "BSTAR": 0.0011403,
    "MEAN_MOTION_DOT": 0.00029772,
    "MEAN_MOTION_DDOT": 0
};

let test = jsonFormat(obj);
console.log(test);