61227,OBJECT A,2024,94.34,-1.0,+,97.4,Active,0,LEO,PRC,China,Unknown,Unknown,Unknown,1 61227U 24173A   24298.52485810  .00029772  00000+0  11403-2 0  9990,2 61227  97.4043  11.0230 0011954 163.1983 196.9654 15.26424552  4623,15.26424552,0.0011954,LEO
